STARLINK-1143
1 45179U 20012B   26061.25002314  .00203503  00000+0  23327-2 0  9994
2 45179  53.0478   6.2516 0007014  69.4159 171.2791 15.60900920  5882
STARLINK-1531
1 46572U 20070AS  26061.16668981  .00211789  00000+0  24247-2 0  9991
2 46572  53.0553 176.3137 0009594 220.7040  49.4126 15.60880308  5951
STARLINK-1905
1 46746U 20074H   26061.10315267  .00166355  00000+0  19223-2 0  9994
2 46746  53.0489 320.7287 0001599  46.9523 313.1623 15.60847621296028
